{"type":"FeatureCollection","features":[{"type":"Feature","properties":{"name":"Neira"},"geometry":{"type":"Polygon","coordinates":[[[-75.5252433,5.1648042],[-75.5246371,5.1640295],[-75.5243259,5.1636769],[-75.5238324,5.1639707],[-75.5234784,5.1640562],[-75.5232906,5.1638799],[-75.5231672,5.163741],[-75.5231029,5.1635433],[-75.5230009,5.1631907],[-75.522899,5.1629984],[-75.5227864,5.1629022],[-75.5225342,5.1627847],[-75.5224323,5.1627259],[-75.5222553,5.1624],[-75.5220085,5.1618711],[-75.5217617,5.1616253],[-75.5215203,5.1614009],[-75.5212789,5.1613154],[-75.5209678,5.1612246],[-75.5208552,5.1611605],[-75.5208069,5.1610964],[-75.520705,5.1611071],[-75.5206835,5.1612139],[-75.5207532,5.1613528],[-75.5208444,5.1615505],[-75.5207801,5.161855],[-75.5205762,5.1621809],[-75.5204099,5.1622451],[-75.5201041,5.1621809],[-75.5198145,5.1621168],[-75.5195355,5.1621863],[-75.5194014,5.1624053],[-75.5192351,5.1624],[-75.5189079,5.1623679],[-75.5184573,5.1622077],[-75.5183339,5.1622344],[-75.5181998,5.1622824],[-75.5180549,5.1622824],[-75.5179316,5.1622344],[-75.5177974,5.1621542],[-75.5176472,5.1620687],[-75.5174595,5.1620153],[-75.517261,5.1620367],[-75.5170625,5.1620848],[-75.5169016,5.1621863],[-75.5166334,5.1623519],[-75.5165314,5.1623626],[-75.5163437,5.1623359],[-75.5161881,5.1623092],[-75.5160004,5.1623252],[-75.5159199,5.162384],[-75.5158663,5.1624801],[-75.5158555,5.1626137],[-75.5159199,5.1630091],[-75.515995,5.1633937],[-75.5160057,5.1635967],[-75.5158609,5.1636769],[-75.5157107,5.1637944],[-75.5155658,5.1639333],[-75.5154156,5.1640028],[-75.5152064,5.1641737],[-75.5144179,5.1646225],[-75.5147344,5.1650339],[-75.5145949,5.1651461],[-75.5146754,5.1652904],[-75.5146217,5.1653438],[-75.5148041,5.1655468],[-75.5150348,5.1655895],[-75.5151742,5.1657445],[-75.5152333,5.166017],[-75.5154586,5.1663161],[-75.5155658,5.1664978],[-75.5157053,5.1666581],[-75.5161077,5.1668825],[-75.5160969,5.1670374],[-75.5159789,5.1672404],[-75.5157429,5.1675396],[-75.5155283,5.1678174],[-75.5154425,5.1679884],[-75.5154103,5.1683624],[-75.5154317,5.1685333],[-75.5156463,5.1686616],[-75.5158341,5.168934],[-75.5160218,5.169089],[-75.516172,5.1692225],[-75.5163598,5.1693294],[-75.5169338,5.1695003],[-75.516628,5.1698904],[-75.5168855,5.1700613],[-75.5172234,5.1696232],[-75.517379,5.1695484],[-75.5176097,5.1695484],[-75.5178994,5.1694255],[-75.5181676,5.1692225],[-75.5184465,5.1691638],[-75.518527,5.1692386],[-75.5185967,5.1693988],[-75.5186504,5.1695645],[-75.5186718,5.1696766],[-75.5186665,5.1698209],[-75.5186611,5.1699171],[-75.5186504,5.1700613],[-75.5186826,5.1701521],[-75.5187416,5.1702483],[-75.5188489,5.1703017],[-75.5189883,5.1703284],[-75.5191439,5.1703284],[-75.5193451,5.1703391],[-75.5194846,5.1703552],[-75.5196106,5.1703952],[-75.5196643,5.1704674],[-75.5196643,5.1705582],[-75.5196321,5.1706624],[-75.5194926,5.1709054],[-75.5194497,5.1710016],[-75.5193746,5.1713142],[-75.5193478,5.1714771],[-75.5192646,5.1719446],[-75.51927,5.1721903],[-75.5192941,5.1722918],[-75.5193826,5.17238],[-75.5195221,5.1724494],[-75.5196133,5.1725002],[-75.519683,5.1725884],[-75.5197286,5.1727005],[-75.5197903,5.1728047],[-75.5198869,5.1728982],[-75.5200693,5.172981],[-75.5201819,5.1730264],[-75.5203804,5.1730505],[-75.5208632,5.1730932],[-75.5209705,5.1731199],[-75.5210456,5.1731814],[-75.5211127,5.1732695],[-75.5212092,5.1739854],[-75.5211609,5.1741671],[-75.5211153,5.1742819],[-75.5211019,5.1743648],[-75.521118,5.1744663],[-75.5211851,5.1745651],[-75.5214935,5.1746933],[-75.5217054,5.1747147],[-75.5218637,5.1747414],[-75.5219736,5.1748082],[-75.52203,5.174883],[-75.5220595,5.1749845],[-75.5220648,5.1752035],[-75.5220782,5.17546],[-75.5220219,5.1755989],[-75.5219093,5.1756897],[-75.5216223,5.1758687],[-75.521346,5.176045],[-75.5212119,5.1761732],[-75.5208257,5.1767422],[-75.5204341,5.1773699],[-75.5203348,5.1776798],[-75.5216866,5.1780645],[-75.5217886,5.177776],[-75.5220139,5.1775997],[-75.5222231,5.1773699],[-75.5223196,5.1772684],[-75.5225718,5.1773058],[-75.5227327,5.176996],[-75.5228722,5.1768197],[-75.5228615,5.1765792],[-75.5227327,5.176232],[-75.5225503,5.1757405],[-75.5223411,5.1754894],[-75.522443,5.175249],[-75.522604,5.1752276],[-75.5226791,5.1749177],[-75.5227005,5.1746933],[-75.522781,5.1746078],[-75.5227542,5.1744957],[-75.5223733,5.174485],[-75.5222875,5.1743941],[-75.5220514,5.1742926],[-75.5220246,5.1739935],[-75.5219334,5.1737103],[-75.5217564,5.1734806],[-75.5217242,5.1732722],[-75.5217027,5.1729784],[-75.5215955,5.17277],[-75.5214023,5.1723373],[-75.5211663,5.172177],[-75.5211502,5.1720274],[-75.5212468,5.1719472],[-75.5213541,5.1719472],[-75.521397,5.1717923],[-75.5213272,5.1713649],[-75.521177,5.1709054],[-75.5211663,5.1705421],[-75.5212521,5.1703872],[-75.5213487,5.1702964],[-75.5213272,5.1700667],[-75.5215096,5.1698743],[-75.521633,5.1697782],[-75.5217564,5.1697194],[-75.5218744,5.1695164],[-75.5218368,5.1692492],[-75.5218315,5.1687951],[-75.522089,5.1687096],[-75.5228024,5.1689928],[-75.5230331,5.1687043],[-75.5231726,5.1685707],[-75.5233496,5.1681059],[-75.5235481,5.1679136],[-75.5237519,5.1678708],[-75.5238485,5.1677106],[-75.5238807,5.1675289],[-75.5242669,5.1675717],[-75.5245191,5.1675823],[-75.5246746,5.1675129],[-75.5246693,5.1673793],[-75.5245352,5.1672938],[-75.5245191,5.1671443],[-75.5246049,5.167],[-75.5246424,5.1666474],[-75.5247122,5.1664818],[-75.52468,5.166236],[-75.5244731,5.1655734],[-75.524736,5.1654202],[-75.5247108,5.1652294],[-75.5249643,5.1649271],[-75.5252433,5.1648042]]]}}]}