{"type":"FeatureCollection","features":[{"type":"Feature","properties":{"cls":"sport"},"geometry":{"type":"Polygon","coordinates":[[[-75.515177,5.164536],[-75.515068,5.164408],[-75.514745,5.164682],[-75.514854,5.164809],[-75.515177,5.164536]]]}},{"type":"Feature","properties":{"cls":"park","name":"Parque de Carlos Parra"},"geometry":{"type":"Polygon","coordinates":[[[-75.516089,5.164441],[-75.516077,5.164322],[-75.51602,5.164149],[-75.515872,5.164201],[-75.516089,5.164441]]]}},{"type":"Feature","properties":{"cls":"park","name":"Parque de Ciudad Jardín"},"geometry":{"type":"Polygon","coordinates":[[[-75.516493,5.16397],[-75.516628,5.163853],[-75.516487,5.163655],[-75.516424,5.163689],[-75.516493,5.16397]]]}},{"type":"Feature","properties":{"cls":"sport","name":"Estadio La Arenosa"},"geometry":{"type":"Polygon","coordinates":[[[-75.519759,5.16479],[-75.519168,5.164827],[-75.519113,5.163974],[-75.519704,5.163936],[-75.519759,5.16479]]]}},{"type":"Feature","properties":{"cls":"park","name":"Parque Principal"},"geometry":{"type":"Polygon","coordinates":[[[-75.5212,5.167651],[-75.521172,5.167188],[-75.520742,5.167214],[-75.520769,5.167676],[-75.521147,5.167654],[-75.5212,5.167651]]]}},{"type":"Feature","properties":{"cls":"cemetery"},"geometry":{"type":"Polygon","coordinates":[[[-75.51996,5.171677],[-75.520008,5.171068],[-75.520094,5.17071],[-75.520796,5.170855],[-75.520662,5.171811],[-75.51996,5.171677]]]}}]}