{"type":"FeatureCollection","features":[{"type":"Feature","properties":{"name":"Neira","place":"town"},"geometry":{"type":"Point","coordinates":[-75.520978,5.167433]}},{"type":"Feature","properties":{"name":"Cuchilla del Salado","place":"village"},"geometry":{"type":"Point","coordinates":[-75.537247,5.110369]}},{"type":"Feature","properties":{"name":"Pueblo Rico","place":"village"},"geometry":{"type":"Point","coordinates":[-75.52124,5.136194]}},{"type":"Feature","properties":{"name":"Mina Rica","place":"village"},"geometry":{"type":"Point","coordinates":[-75.595893,5.132957]}},{"type":"Feature","properties":{"name":"Alto Lisboa","place":"peak","ele":"1356.67"},"geometry":{"type":"Point","coordinates":[-75.592009,5.12021]}},{"type":"Feature","properties":{"name":"Buamioral","place":"locality"},"geometry":{"type":"Point","coordinates":[-75.589713,5.225655]}},{"type":"Feature","properties":{"name":"Gibraltar","place":"locality"},"geometry":{"type":"Point","coordinates":[-75.599507,5.203728]}},{"type":"Feature","properties":{"name":"La India","place":"locality"},"geometry":{"type":"Point","coordinates":[-75.591028,5.237057]}},{"type":"Feature","properties":{"name":"Alto del Guamo","place":"hamlet"},"geometry":{"type":"Point","coordinates":[-75.480758,5.110222]}},{"type":"Feature","properties":{"name":"La Garrucha","place":"village"},"geometry":{"type":"Point","coordinates":[-75.577283,5.139677]}},{"type":"Feature","properties":{"name":"Alto El Canasto","place":"peak","ele":"1695.77"},"geometry":{"type":"Point","coordinates":[-75.563885,5.109455]}},{"type":"Feature","properties":{"name":"Alto Bonito","place":"hamlet"},"geometry":{"type":"Point","coordinates":[-75.510044,5.114198]}},{"type":"Feature","properties":{"name":"El Águila","place":"hamlet"},"geometry":{"type":"Point","coordinates":[-75.510754,5.109807]}},{"type":"Feature","properties":{"name":"Alto La Popa","place":"peak","ele":"1704"},"geometry":{"type":"Point","coordinates":[-75.544173,5.11777]}},{"type":"Feature","properties":{"name":"Arabia","place":"locality"},"geometry":{"type":"Point","coordinates":[-75.574802,5.112659]}},{"type":"Feature","properties":{"name":"La Cueva","place":"locality"},"geometry":{"type":"Point","coordinates":[-75.568809,5.105789]}},{"type":"Feature","properties":{"name":"El Guineo","place":"locality"},"geometry":{"type":"Point","coordinates":[-75.555361,5.131077]}},{"type":"Feature","properties":{"name":"La Honda","place":"locality"},"geometry":{"type":"Point","coordinates":[-75.557553,5.123038]}},{"type":"Feature","properties":{"name":"Ladrillo","place":"locality"},"geometry":{"type":"Point","coordinates":[-75.508876,5.164553]}},{"type":"Feature","properties":{"name":"Moravia","place":"locality"},"geometry":{"type":"Point","coordinates":[-75.505075,5.142333]}},{"type":"Feature","properties":{"name":"Alto del Higuerón","place":"peak","ele":"1718"},"geometry":{"type":"Point","coordinates":[-75.559984,5.161666]}},{"type":"Feature","properties":{"name":"Las Pavas","place":"locality"},"geometry":{"type":"Point","coordinates":[-75.503175,5.169376]}},{"type":"Feature","properties":{"name":"Tapias","place":"locality"},"geometry":{"type":"Point","coordinates":[-75.519785,5.184995]}},{"type":"Feature","properties":{"name":"Pueblo Hondo","place":"locality"},"geometry":{"type":"Point","coordinates":[-75.502655,5.14715]}},{"type":"Feature","properties":{"name":"Cuchilla San Gabriel","place":"peak","ele":"1783.90"},"geometry":{"type":"Point","coordinates":[-75.562229,5.144997]}},{"type":"Feature","properties":{"name":"Medellín","place":"hamlet"},"geometry":{"type":"Point","coordinates":[-75.512738,5.157076]}},{"type":"Feature","properties":{"name":"Guacaica","place":"locality"},"geometry":{"type":"Point","coordinates":[-75.447334,5.134878]}},{"type":"Feature","properties":{"name":"San Narciso","place":"locality"},"geometry":{"type":"Point","coordinates":[-75.443826,5.141164]}},{"type":"Feature","properties":{"name":"La Rocallosa","place":"locality"},"geometry":{"type":"Point","coordinates":[-75.440989,5.125897]}},{"type":"Feature","properties":{"name":"Rio Blanco","place":"locality"},"geometry":{"type":"Point","coordinates":[-75.446896,5.12523]}},{"type":"Feature","properties":{"name":"Sinaí","place":"locality"},"geometry":{"type":"Point","coordinates":[-75.453181,5.104181]}},{"type":"Feature","properties":{"name":"Hoyo Frío","place":"hamlet"},"geometry":{"type":"Point","coordinates":[-75.459801,5.121155]}},{"type":"Feature","properties":{"name":"El Espartillal","place":"hamlet"},"geometry":{"type":"Point","coordinates":[-75.482907,5.128653]}},{"type":"Feature","properties":{"name":"Cerro de La Torre","place":"peak","ele":"2038.78"},"geometry":{"type":"Point","coordinates":[-75.464997,5.123342]}},{"type":"Feature","properties":{"name":"La Capilla","place":"locality"},"geometry":{"type":"Point","coordinates":[-75.474441,5.144354]}},{"type":"Feature","properties":{"name":"Los Llanos","place":"locality"},"geometry":{"type":"Point","coordinates":[-75.487826,5.16119]}},{"type":"Feature","properties":{"name":"Las Mercedes","place":"locality"},"geometry":{"type":"Point","coordinates":[-75.454351,5.153443]}},{"type":"Feature","properties":{"name":"La Patria","place":"locality"},"geometry":{"type":"Point","coordinates":[-75.459029,5.149204]}},{"type":"Feature","properties":{"name":"Loma de La Judea","place":"peak","ele":"2069.9"},"geometry":{"type":"Point","coordinates":[-75.473908,5.158059]}},{"type":"Feature","properties":{"name":"Partida","place":"locality"},"geometry":{"type":"Point","coordinates":[-75.471892,5.179316]}},{"type":"Feature","properties":{"name":"La Margarita","place":"locality"},"geometry":{"type":"Point","coordinates":[-75.461514,5.182971]}},{"type":"Feature","properties":{"name":"Agua Frias","place":"locality"},"geometry":{"type":"Point","coordinates":[-75.464145,5.173323]}},{"type":"Feature","properties":{"name":"El Berraco","place":"locality"},"geometry":{"type":"Point","coordinates":[-75.496743,5.169523]}},{"type":"Feature","properties":{"name":"Alto del Calvario","place":"peak","ele":"2405.71"},"geometry":{"type":"Point","coordinates":[-75.453617,5.177009]}},{"type":"Feature","properties":{"name":"Alto El Naranjo","place":"peak","ele":"2236"},"geometry":{"type":"Point","coordinates":[-75.468056,5.165833]}},{"type":"Feature","properties":{"name":"Santa Claral","place":"locality"},"geometry":{"type":"Point","coordinates":[-75.453474,5.14628]}},{"type":"Feature","properties":{"name":"La Floresta","place":"locality"},"geometry":{"type":"Point","coordinates":[-75.440318,5.167915]}},{"type":"Feature","properties":{"name":"Cuchilla de La Camelia","place":"peak","ele":"1922.95"},"geometry":{"type":"Point","coordinates":[-75.532223,5.222217]}},{"type":"Feature","properties":{"name":"Palonegro","place":"locality"},"geometry":{"type":"Point","coordinates":[-75.556676,5.227702]}},{"type":"Feature","properties":{"name":"Pan de Azúcar","place":"hamlet"},"geometry":{"type":"Point","coordinates":[-75.510922,5.192034]}},{"type":"Feature","properties":{"name":"Tres Esquinas","place":"locality"},"geometry":{"type":"Point","coordinates":[-75.520862,5.200659]}},{"type":"Feature","properties":{"name":"Felicia","place":"locality"},"geometry":{"type":"Point","coordinates":[-75.540743,5.205629]}},{"type":"Feature","properties":{"name":"Astromela","place":"locality"},"geometry":{"type":"Point","coordinates":[-75.508145,5.213376]}},{"type":"Feature","properties":{"name":"El Cerdo","place":"locality"},"geometry":{"type":"Point","coordinates":[-75.517646,5.208552]}},{"type":"Feature","properties":{"name":"Los Cauces","place":"locality"},"geometry":{"type":"Point","coordinates":[-75.508583,5.21016]}},{"type":"Feature","properties":{"name":"Pan De Azucar","place":"locality"},"geometry":{"type":"Point","coordinates":[-75.521472,5.213401]}},{"type":"Feature","properties":{"name":"El Descanso","place":"locality"},"geometry":{"type":"Point","coordinates":[-75.547936,5.187302]}},{"type":"Feature","properties":{"name":"La Felicia","place":"locality"},"geometry":{"type":"Point","coordinates":[-75.533624,5.210656]}},{"type":"Feature","properties":{"name":"Buenos Aires","place":"locality"},"geometry":{"type":"Point","coordinates":[-75.510191,5.234718]}},{"type":"Feature","properties":{"name":"San Luis","place":"village"},"geometry":{"type":"Point","coordinates":[-75.561296,5.234803]}},{"type":"Feature","properties":{"name":"Samaria","place":"village"},"geometry":{"type":"Point","coordinates":[-75.570852,5.231448]}},{"type":"Feature","properties":{"name":"Sumapaz","place":"locality"},"geometry":{"type":"Point","coordinates":[-75.457995,5.209511]}},{"type":"Feature","properties":{"name":"El Retiro","place":"locality"},"geometry":{"type":"Point","coordinates":[-75.447884,5.218155]}},{"type":"Feature","properties":{"name":"Berlin","place":"locality"},"geometry":{"type":"Point","coordinates":[-75.480175,5.213751]}},{"type":"Feature","properties":{"name":"La Elvita","place":"locality"},"geometry":{"type":"Point","coordinates":[-75.447395,5.209022]}},{"type":"Feature","properties":{"name":"Cerro El Cardal","place":"peak","ele":"2300"},"geometry":{"type":"Point","coordinates":[-75.498611,5.222778]}},{"type":"Feature","properties":{"name":"Alto de Aures","place":"peak","ele":"2280"},"geometry":{"type":"Point","coordinates":[-75.498611,5.216667]}},{"type":"Feature","properties":{"name":"Santa Helena","place":"locality"},"geometry":{"type":"Point","coordinates":[-75.484902,5.227848]}},{"type":"Feature","properties":{"name":"Calera","place":"locality"},"geometry":{"type":"Point","coordinates":[-75.46853,5.195542]}},{"type":"Feature","properties":{"name":"La Granja","place":"locality"},"geometry":{"type":"Point","coordinates":[-75.465607,5.190719]}},{"type":"Feature","properties":{"name":"Morro Azul","place":"locality"},"geometry":{"type":"Point","coordinates":[-75.474085,5.201536]}},{"type":"Feature","properties":{"name":"La Concha","place":"locality"},"geometry":{"type":"Point","coordinates":[-75.467507,5.199635]}},{"type":"Feature","properties":{"name":"La Florida","place":"locality"},"geometry":{"type":"Point","coordinates":[-75.445927,5.229734]}},{"type":"Feature","properties":{"name":"Loma de Buena Vista","place":"peak","ele":"2257.95"},"geometry":{"type":"Point","coordinates":[-75.470276,5.237499]}},{"type":"Feature","properties":{"name":"Alto de Lisboa","place":"village"},"geometry":{"type":"Point","coordinates":[-75.592639,5.118329]}},{"type":"Feature","properties":{"name":"La Quiebra de Los Marinillos","place":"locality"},"geometry":{"type":"Point","coordinates":[-75.530502,5.164864]}},{"type":"Feature","properties":{"name":"La Quiebra","place":"locality"},"geometry":{"type":"Point","coordinates":[-75.549931,5.167476]}},{"type":"Feature","properties":{"name":"Finca Las Terazas","place":"farm"},"geometry":{"type":"Point","coordinates":[-75.52768,5.104927]}},{"type":"Feature","properties":{"name":"Cuchilla de Las Peñas","place":"peak","ele":"2231.6"},"geometry":{"type":"Point","coordinates":[-75.454445,5.136408]}},{"type":"Feature","properties":{"name":"Cuchilla de Las Peñas","place":"peak","ele":"2232"},"geometry":{"type":"Point","coordinates":[-75.454444,5.136389]}},{"type":"Feature","properties":{"name":"Cuchilla del Guayabo","place":"peak","ele":"1248"},"geometry":{"type":"Point","coordinates":[-75.596389,5.166389]}},{"type":"Feature","properties":{"name":"Loma Alto Bonito","place":"peak","ele":"2267"},"geometry":{"type":"Point","coordinates":[-75.490832,5.123889]}},{"type":"Feature","properties":{"name":"Cuchilla de Miraderos","place":"peak","ele":"2198"},"geometry":{"type":"Point","coordinates":[-75.471111,5.178056]}},{"type":"Feature","properties":{"name":"Puerto Samaria","place":"locality"},"geometry":{"type":"Point","coordinates":[-75.549106,5.239924]}}]}