{"type":"FeatureCollection","features":[{"type":"Feature","properties":{"name":"Parque de Carlos Parra","kind":"park"},"geometry":{"type":"Point","coordinates":[-75.516029,5.164311]}},{"type":"Feature","properties":{"name":"Parque de Ciudad Jardín","kind":"park"},"geometry":{"type":"Point","coordinates":[-75.516505,5.163827]}},{"type":"Feature","properties":{"name":"Parque Principal","kind":"park"},"geometry":{"type":"Point","coordinates":[-75.521038,5.167506]}},{"type":"Feature","properties":{"name":"Parroquia San Juan Bautista","kind":"church","from_building":1},"geometry":{"type":"Point","coordinates":[-75.521547,5.167481]}}]}