{"type":"FeatureCollection","features":[{"type":"Feature","properties":{"geom":"line","cls":"river","name":"Río Tapias"},"geometry":{"type":"LineString","coordinates":[[-75.381808,5.22466],[-75.382286,5.224422],[-75.382764,5.223613],[-75.383625,5.222803],[-75.383912,5.221375],[-75.38439,5.220803],[-75.384486,5.219899],[-75.384342,5.219041],[-75.385012,5.218136],[-75.385538,5.217279],[-75.386111,5.21647],[-75.38659,5.215279],[-75.386685,5.213993],[-75.38745,5.21366],[-75.38745,5.212517],[-75.388168,5.212565],[-75.38922,5.212136],[-75.389028,5.211041],[-75.389076,5.210279],[-75.389698,5.209422],[-75.390176,5.208517],[-75.391372,5.208279],[-75.392519,5.208803],[-75.393237,5.20866],[-75.393619,5.207993],[-75.394528,5.207374],[-75.395819,5.206993],[-75.39601,5.206184],[-75.395867,5.20485],[-75.396727,5.203945],[-75.397205,5.203088],[-75.398162,5.201993],[-75.399453,5.201279],[-75.400218,5.201279],[-75.400983,5.200802],[-75.402226,5.200564],[-75.40323,5.200638],[-75.403518,5.20066],[-75.404809,5.200469],[-75.405383,5.199755],[-75.406243,5.199564],[-75.406865,5.200374],[-75.40763,5.200088],[-75.408634,5.19985],[-75.409877,5.199945],[-75.410955,5.199683],[-75.411689,5.199806],[-75.41238,5.199348],[-75.412767,5.199531],[-75.412998,5.199811],[-75.413568,5.200211],[-75.414235,5.20006],[-75.414736,5.200387],[-75.415076,5.200938],[-75.415198,5.201073],[-75.415398,5.201106],[-75.415562,5.201114],[-75.415715,5.201165],[-75.415877,5.201518],[-75.416532,5.201978],[-75.416906,5.202159],[-75.417366,5.202074],[-75.418043,5.201773],[-75.418162,5.201689],[-75.418237,5.201635],[-75.418355,5.201558],[-75.418916,5.201169],[-75.41951,5.201137],[-75.419758,5.201015],[-75.419945,5.200906],[-75.42029,5.200578],[-75.420925,5.200442],[-75.421435,5.200619],[-75.421656,5.201031],[-75.421734,5.201501],[-75.421988,5.201837],[-75.422597,5.202088],[-75.423506,5.202374],[-75.424319,5.202517],[-75.425275,5.202898],[-75.425801,5.203612],[-75.426423,5.204279],[-75.426423,5.205041],[-75.427666,5.205279],[-75.42867,5.205422],[-75.429961,5.205517],[-75.430487,5.20485],[-75.43087,5.204041],[-75.432065,5.20366],[-75.433117,5.203088],[-75.43393,5.202564],[-75.434982,5.202326],[-75.435843,5.202231],[-75.437326,5.202279],[-75.438425,5.202469],[-75.439238,5.202612],[-75.44029,5.203136],[-75.44096,5.203517],[-75.442251,5.203183],[-75.443542,5.20285],[-75.444976,5.203279],[-75.445981,5.20366],[-75.446889,5.203279],[-75.447702,5.203517],[-75.448276,5.202517],[-75.448419,5.201564],[-75.448754,5.200612],[-75.449376,5.199897],[-75.449089,5.19904],[-75.448324,5.198421],[-75.447989,5.19704],[-75.448515,5.196421],[-75.449424,5.196183],[-75.449806,5.195516],[-75.451002,5.195326],[-75.452054,5.194754],[-75.45301,5.19423],[-75.453775,5.19404],[-75.454014,5.193421],[-75.454397,5.192802],[-75.455114,5.193088],[-75.455975,5.192707],[-75.456828,5.191933],[-75.457601,5.191992],[-75.458676,5.191769],[-75.458854,5.191325],[-75.458556,5.190877],[-75.458258,5.190428],[-75.458451,5.189979],[-75.458917,5.189637],[-75.459287,5.189201],[-75.459745,5.188327],[-75.460709,5.18804],[-75.461665,5.187849],[-75.462478,5.18755],[-75.462784,5.187353],[-75.463241,5.186939],[-75.46414,5.186848],[-75.464622,5.186773],[-75.465366,5.186667],[-75.466235,5.186451],[-75.467202,5.186189],[-75.468379,5.186005],[-75.469253,5.185644],[-75.469679,5.185897],[-75.470574,5.186138],[-75.470743,5.186547],[-75.470574,5.187142],[-75.470703,5.187563],[-75.471373,5.187801],[-75.472281,5.187754],[-75.472951,5.188421],[-75.473302,5.188708],[-75.47315,5.189289],[-75.472916,5.190054],[-75.472896,5.19021],[-75.473502,5.190286],[-75.474123,5.190641],[-75.474337,5.191183],[-75.474874,5.191574],[-75.476375,5.191673],[-75.477226,5.190707],[-75.478795,5.190684],[-75.479514,5.190091],[-75.479788,5.189498],[-75.480013,5.189178],[-75.480523,5.189274],[-75.480971,5.189006],[-75.481563,5.188569],[-75.482251,5.188263],[-75.48291,5.187805],[-75.483516,5.187746],[-75.484165,5.187335],[-75.484862,5.186689],[-75.485544,5.186453],[-75.486005,5.186421],[-75.486442,5.186182],[-75.486767,5.186453],[-75.486842,5.187073],[-75.487057,5.186928],[-75.487518,5.186784],[-75.487813,5.186047],[-75.487985,5.185876],[-75.488355,5.18602],[-75.488585,5.186207],[-75.489041,5.18602],[-75.489266,5.18608],[-75.489578,5.186378],[-75.489685,5.186613],[-75.489621,5.187329],[-75.489599,5.188504],[-75.489728,5.188804],[-75.490093,5.189001],[-75.490656,5.18922],[-75.490994,5.189065],[-75.491437,5.189183],[-75.492603,5.189554],[-75.492882,5.190059],[-75.493067,5.190115],[-75.493385,5.189924],[-75.493636,5.189573],[-75.494052,5.189253],[-75.494693,5.189183],[-75.495282,5.189392],[-75.495717,5.18937],[-75.496206,5.189375],[-75.496576,5.18949],[-75.496731,5.189944],[-75.497217,5.190225],[-75.497423,5.190195],[-75.497606,5.189771],[-75.497957,5.189512],[-75.498311,5.189317],[-75.498762,5.189365],[-75.499472,5.189674],[-75.499709,5.189733],[-75.500358,5.189682],[-75.500583,5.189803],[-75.500736,5.190027],[-75.500917,5.19008],[-75.501058,5.190115],[-75.501473,5.190142],[-75.502117,5.190211],[-75.502611,5.189992],[-75.503319,5.189803],[-75.5037,5.189987],[-75.503796,5.190214],[-75.504064,5.190229],[-75.504487,5.190214],[-75.50492,5.189971],[-75.505301,5.189886],[-75.505837,5.18961],[-75.506218,5.189525],[-75.506527,5.189598],[-75.506988,5.189421],[-75.507407,5.188948],[-75.507761,5.188892],[-75.508406,5.189068],[-75.509174,5.188801],[-75.51013,5.188868],[-75.510406,5.188542],[-75.510903,5.188288],[-75.511147,5.188692],[-75.511487,5.188539],[-75.511528,5.188053],[-75.511733,5.187805],[-75.513322,5.187564],[-75.513948,5.187967],[-75.514655,5.187906],[-75.515017,5.187663],[-75.515216,5.187164],[-75.515631,5.186929],[-75.516278,5.187137],[-75.517058,5.187001],[-75.517418,5.186462],[-75.517992,5.186179],[-75.518895,5.186399],[-75.519792,5.186412],[-75.520604,5.185895],[-75.521092,5.18636],[-75.521743,5.186645],[-75.52316,5.186138],[-75.524181,5.186737],[-75.527121,5.187337],[-75.528039,5.188644],[-75.529649,5.188917],[-75.530329,5.189123],[-75.531196,5.189524],[-75.531624,5.189449],[-75.53184,5.189181],[-75.531861,5.188731],[-75.531515,5.188192],[-75.531669,5.187931],[-75.532156,5.187639],[-75.53301,5.187524],[-75.534385,5.187766],[-75.534979,5.187651],[-75.535131,5.18773],[-75.535598,5.187981],[-75.53586,5.188039],[-75.536134,5.18804],[-75.536386,5.187516],[-75.536874,5.187329],[-75.538271,5.186968],[-75.538736,5.186699],[-75.538951,5.186133],[-75.53899,5.185318],[-75.541784,5.1848],[-75.543022,5.184383],[-75.543483,5.184789],[-75.544108,5.18478],[-75.545112,5.183907],[-75.545526,5.184017],[-75.545731,5.184324],[-75.545189,5.185278],[-75.545302,5.185572],[-75.54546,5.18566],[-75.546415,5.185029],[-75.547223,5.185149],[-75.547658,5.184206],[-75.54925,5.182644],[-75.548917,5.182054],[-75.548907,5.182003],[-75.548918,5.181952],[-75.549215,5.181803],[-75.549388,5.181735],[-75.549469,5.181682],[-75.549532,5.181616],[-75.549659,5.181375],[-75.550044,5.180973],[-75.550654,5.18074],[-75.550713,5.179459],[-75.551073,5.178877],[-75.551684,5.179313],[-75.554058,5.178626],[-75.554532,5.179785],[-75.553746,5.180301],[-75.55357,5.181928],[-75.554599,5.182468],[-75.554942,5.182195],[-75.555124,5.181223],[-75.556186,5.181458],[-75.556084,5.182318],[-75.557199,5.182489],[-75.557292,5.183456],[-75.557773,5.183437],[-75.558532,5.184152],[-75.559148,5.184129],[-75.559958,5.183638],[-75.560279,5.183857],[-75.559652,5.184337],[-75.560254,5.185372],[-75.560875,5.185908],[-75.560789,5.186378],[-75.560006,5.18708],[-75.56095,5.188424],[-75.56183,5.188467],[-75.561674,5.189071],[-75.560743,5.1891],[-75.560993,5.190513],[-75.560821,5.191454],[-75.561379,5.192041],[-75.561417,5.19262],[-75.562173,5.193655],[-75.562098,5.194061],[-75.561427,5.194253],[-75.561127,5.194884],[-75.561293,5.195188],[-75.564245,5.193665],[-75.564744,5.193755],[-75.564926,5.19406],[-75.565065,5.194079],[-75.565148,5.193991],[-75.56515,5.193518],[-75.565386,5.193388],[-75.565601,5.193462],[-75.565872,5.193938],[-75.566612,5.193732],[-75.566859,5.193257],[-75.56669,5.192896],[-75.566199,5.192522],[-75.566025,5.192129],[-75.566604,5.191897],[-75.566797,5.191438],[-75.566942,5.190986],[-75.567988,5.190823],[-75.568613,5.190537],[-75.569058,5.189862],[-75.56941,5.189819],[-75.569866,5.190038],[-75.570257,5.189883],[-75.570584,5.189472],[-75.57132,5.189827],[-75.571518,5.190711],[-75.572682,5.191571],[-75.573594,5.191411],[-75.574222,5.190658],[-75.57523,5.188932],[-75.576394,5.188542],[-75.576947,5.188676],[-75.578642,5.188472],[-75.57972,5.188569],[-75.580144,5.188344],[-75.580251,5.187666],[-75.581061,5.187303],[-75.581565,5.186448],[-75.58413,5.185662],[-75.584789,5.185775],[-75.585106,5.18524],[-75.586007,5.185059],[-75.58634,5.184514],[-75.588593,5.183162],[-75.589784,5.181816],[-75.591232,5.181469],[-75.591908,5.181757],[-75.59223,5.18141],[-75.592697,5.181298],[-75.593,5.181602],[-75.593544,5.181546],[-75.594196,5.18126],[-75.594802,5.181386],[-75.595835,5.181169],[-75.596055,5.181912],[-75.595784,5.182318],[-75.596119,5.182724],[-75.596983,5.182863],[-75.597905,5.183793],[-75.599182,5.18407],[-75.600239,5.18391],[-75.600615,5.184621],[-75.6015,5.184631],[-75.602197,5.184092],[-75.604536,5.184284],[-75.606022,5.184818],[-75.606639,5.184743],[-75.608152,5.184049],[-75.608473,5.184113],[-75.608559,5.184423],[-75.607918,5.18558],[-75.607956,5.185978],[-75.608165,5.186194],[-75.609165,5.186082],[-75.609281,5.186202],[-75.609289,5.186605],[-75.609576,5.186701],[-75.609764,5.186589],[-75.609863,5.186274],[-75.611904,5.186039],[-75.611995,5.186181],[-75.611571,5.186969],[-75.611472,5.187483],[-75.611504,5.187799],[-75.611881,5.188143],[-75.611921,5.188362],[-75.612046,5.190139],[-75.612502,5.190978],[-75.612387,5.191309],[-75.612513,5.1916],[-75.612169,5.192044],[-75.612395,5.192992],[-75.611899,5.194576],[-75.611992,5.194854],[-75.612566,5.195132],[-75.612647,5.195404],[-75.612242,5.196163],[-75.612296,5.196361],[-75.613731,5.197368],[-75.614154,5.197445],[-75.614219,5.197277],[-75.613849,5.196726],[-75.613897,5.196425],[-75.614168,5.196342],[-75.614549,5.196494],[-75.615466,5.197635],[-75.615807,5.197744],[-75.616005,5.197683],[-75.616922,5.196681],[-75.617381,5.196772],[-75.617786,5.19702],[-75.617872,5.199155],[-75.618355,5.199764],[-75.619398,5.19959],[-75.619642,5.200426],[-75.620192,5.20068],[-75.620825,5.20018],[-75.621565,5.200821],[-75.621863,5.200648],[-75.62152,5.199462],[-75.621729,5.199168],[-75.622303,5.199163],[-75.622834,5.198773],[-75.62321,5.19888],[-75.624121,5.19951],[-75.62498,5.199713],[-75.625575,5.199633],[-75.62764,5.200012],[-75.628043,5.20068],[-75.628338,5.202229],[-75.628912,5.20271],[-75.630006,5.202571],[-75.630205,5.202897],[-75.629958,5.203442],[-75.631685,5.204217],[-75.632238,5.204051],[-75.631884,5.203105],[-75.632238,5.202389],[-75.633085,5.20224],[-75.634249,5.202416],[-75.63566,5.201962],[-75.635907,5.202181],[-75.63573,5.203084],[-75.635853,5.203485],[-75.636497,5.203805],[-75.636395,5.204756],[-75.635515,5.205434],[-75.635617,5.205899],[-75.635982,5.206076],[-75.636985,5.205141],[-75.637372,5.205157],[-75.637549,5.20575],[-75.638107,5.206663],[-75.638069,5.207005],[-75.637463,5.207662],[-75.637559,5.208319],[-75.637972,5.20856],[-75.638375,5.20849],[-75.63875,5.208261],[-75.639152,5.208384],[-75.639464,5.208752],[-75.639474,5.209714],[-75.639077,5.210483],[-75.639708,5.214391],[-75.640901,5.215059],[-75.641065,5.215393],[-75.640955,5.215702],[-75.640357,5.216405],[-75.640335,5.216643],[-75.640504,5.217049],[-75.640502,5.217289],[-75.638879,5.219228],[-75.63893,5.219871],[-75.639288,5.220671],[-75.63923,5.220804],[-75.638596,5.221202],[-75.638273,5.22163],[-75.637765,5.221957],[-75.63754,5.222693]]}},{"type":"Feature","properties":{"geom":"line","cls":"stream","name":"Quebrada Yarumal"},"geometry":{"type":"LineString","coordinates":[[-75.51407,5.179861],[-75.514438,5.180384],[-75.51439,5.181031],[-75.514567,5.181378],[-75.514513,5.181912],[-75.514714,5.182251],[-75.514985,5.182345],[-75.515766,5.182075],[-75.516227,5.182147],[-75.516436,5.182398],[-75.516439,5.182876],[-75.516415,5.183274],[-75.516439,5.183961],[-75.516694,5.184666],[-75.517992,5.186179]]}},{"type":"Feature","properties":{"geom":"line","cls":"stream","name":"Quebrada Gallinazo"},"geometry":{"type":"LineString","coordinates":[[-75.517441,5.158617],[-75.517756,5.157301],[-75.517803,5.157189],[-75.518071,5.156557],[-75.518087,5.156447],[-75.517492,5.153554],[-75.516773,5.152013],[-75.516671,5.151864],[-75.516531,5.151777],[-75.516395,5.151727],[-75.516268,5.151638],[-75.516152,5.151472],[-75.516056,5.151269],[-75.515488,5.149175],[-75.515394,5.149052],[-75.515233,5.148977],[-75.514844,5.148873],[-75.514698,5.148753],[-75.514593,5.148582],[-75.513458,5.144779],[-75.513308,5.144535],[-75.513043,5.144367],[-75.512672,5.14421],[-75.51243,5.143962],[-75.512312,5.143654],[-75.512264,5.143346],[-75.512419,5.141309],[-75.512397,5.141196],[-75.51235,5.141086],[-75.51225,5.14094],[-75.512181,5.14081],[-75.512156,5.140668],[-75.512167,5.140512],[-75.512204,5.140352],[-75.512337,5.140001],[-75.512357,5.139904],[-75.512333,5.139802],[-75.512279,5.139711],[-75.512201,5.139624],[-75.512067,5.139507],[-75.511963,5.139401],[-75.511816,5.139235],[-75.511652,5.139021],[-75.511429,5.138692],[-75.511173,5.138289],[-75.511041,5.138036],[-75.510916,5.137782],[-75.510676,5.137297],[-75.510273,5.136353],[-75.510262,5.136296],[-75.510271,5.136245],[-75.510311,5.136204],[-75.510445,5.136149],[-75.510494,5.1361],[-75.510509,5.136031],[-75.510495,5.135947],[-75.510456,5.135838],[-75.51039,5.135735],[-75.510289,5.13564],[-75.510088,5.135473],[-75.509984,5.13533],[-75.509943,5.135174],[-75.509948,5.135023],[-75.509993,5.134904],[-75.510061,5.134808],[-75.510155,5.134708],[-75.510205,5.134647],[-75.510237,5.134587],[-75.51025,5.134515],[-75.510272,5.133878],[-75.510258,5.133805],[-75.510226,5.133734],[-75.510126,5.133573],[-75.5101,5.133499],[-75.510095,5.133418],[-75.510124,5.13334],[-75.510362,5.132991],[-75.510389,5.132892],[-75.510383,5.132784],[-75.510347,5.13268],[-75.510052,5.132011],[-75.510024,5.131919],[-75.510008,5.131829],[-75.509987,5.131634],[-75.509984,5.131535],[-75.509973,5.131446],[-75.509958,5.131384],[-75.509934,5.131312],[-75.509863,5.13114]]}},{"type":"Feature","properties":{"geom":"area"},"geometry":{"type":"Polygon","coordinates":[[[-75.515758,5.153614],[-75.515898,5.153491],[-75.515972,5.153487],[-75.516168,5.153634],[-75.516162,5.153701],[-75.51622,5.153721],[-75.516096,5.153835],[-75.516002,5.15389],[-75.515933,5.153879],[-75.515896,5.153772],[-75.515837,5.153701],[-75.515786,5.153679],[-75.515758,5.153614]]]}}]}